[{"OBJECT_NAME":"SAUDISAT 5B","OBJECT_ID":"2018-102C","EPOCH":"2026-03-09T22:59:17.457216","MEAN_MOTION":15.27248504,"ECCENTRICITY":0.00120577,"INCLINATION":97.3281,"RA_OF_ASC_NODE":135.3629,"ARG_OF_PERICENTER":124.0958,"MEAN_ANOMALY":236.1427,"EPHEMERIS_TYPE":0,"CLASSIFICATION_TYPE":"U","NORAD_CAT_ID":43833,"ELEMENT_SET_NO":999,"REV_AT_EPOCH":40064,"BSTAR":0.00024926623,"MEAN_MOTION_DOT":6.596e-5,"MEAN_MOTION_DDOT":0},{"OBJECT_NAME":"STARLINK-36498","OBJECT_ID":"2026-002P","EPOCH":"2026-03-09T09:39:26.266176","MEAN_MOTION":15.27607877,"ECCENTRICITY":0.00010349,"INCLINATION":42.9959,"RA_OF_ASC_NODE":326.9974,"ARG_OF_PERICENTER":22.2652,"MEAN_ANOMALY":337.8245,"EPHEMERIS_TYPE":0,"CLASSIFICATION_TYPE":"U","NORAD_CAT_ID":67318,"ELEMENT_SET_NO":999,"REV_AT_EPOCH":1109,"BSTAR":0.0010208157,"MEAN_MOTION_DOT":0.00027959,"MEAN_MOTION_DDOT":0}]
